start=new Date('2022-03-29T00:00:00.000Z').valueOf();
sats=[{"MEAN_MOTION":"15.06406820","MEAN_MOTION_DOT":"0.00003066","OBJECT_ID":"2021-040AC","REF_FRAME":"TEME","MEAN_MOTION_DDOT":"0.0000000000000","TLE_LINE2":"2 48454  53.0554 175.7739 0001355  71.5429 288.5707 15.06406820 49260","EPOCH":"2022-03-28T12:29:59.210880","RA_OF_ASC_NODE":"175.7739","GP_ID":"199906003","CENTER_NAME":"EARTH","APOAPSIS":"548.131","MEAN_ELEMENT_THEORY":"SGP4","MEAN_ANOMALY":"288.5707","COUNTRY_CODE":"US","BSTAR":"0.00022457000000","SITE":"AFETR","EPHEMERIS_TYPE":"0","SEMIMAJOR_AXIS":"6925.328","ELEMENT_SET_NO":"999","OBJECT_NAME":"STARLINK-2654","INCLINATION":"53.0554","PERIAPSIS":"546.254","ECCENTRICITY":"0.00013550","TLE_LINE1":"1 48454U 21040AC  22087.52082420  .00003066  00000-0  22457-3 0  9992","REV_AT_EPOCH":"4926","PERIOD":"95.592","LAUNCH_DATE":"2021-05-09","FILE":"3377801","TIME_SYSTEM":"UTC","CLASSIFICATION_TYPE":"U","NORAD_CAT_ID":"48454","RCS_SIZE":"LARGE","OBJECT_TYPE":"PAYLOAD","DECAY_DATE":null,"ARG_OF_PERICENTER":"71.5429"},{"MEAN_MOTION":"15.06408343","MEAN_MOTION_DOT":"0.00003729","OBJECT_ID":"2021-040AD","MEAN_MOTION_DDOT":"0.0000000000000","REF_FRAME":"TEME","TLE_LINE2":"2 48455  53.0545 175.7728 0001579  64.0005 296.1147 15.06408343 49865","EPOCH":"2022-03-28T12:24:41.582880","RA_OF_ASC_NODE":"175.7728","CENTER_NAME":"EARTH","GP_ID":"199915866","MEAN_ELEMENT_THEORY":"SGP4","APOAPSIS":"548.281","MEAN_ANOMALY":"296.1147","SITE":"AFETR","COUNTRY_CODE":"US","BSTAR":"0.00026902000000","EPHEMERIS_TYPE":"0","SEMIMAJOR_AXIS":"6925.323","ELEMENT_SET_NO":"999","INCLINATION":"53.0545","OBJECT_NAME":"STARLINK-2497","PERIAPSIS":"546.094","ECCENTRICITY":"0.00015790","REV_AT_EPOCH":"4986","TLE_LINE1":"1 48455U 21040AD  22087.51714795  .00003729  00000-0  26902-3 0  9994","PERIOD":"95.592","LAUNCH_DATE":"2021-05-09","FILE":"3378165","TIME_SYSTEM":"UTC","RCS_SIZE":"LARGE","NORAD_CAT_ID":"48455","CLASSIFICATION_TYPE":"U","DECAY_DATE":null,"ARG_OF_PERICENTER":"64.0005","OBJECT_TYPE":"PAYLOAD"},{"RCS_SIZE":"LARGE","NORAD_CAT_ID":"48456","CLASSIFICATION_TYPE":"U","DECAY_DATE":null,"ARG_OF_PERICENTER":"51.9221","OBJECT_TYPE":"PAYLOAD","FILE":"3378342","TIME_SYSTEM":"UTC","ECCENTRICITY":"0.00017220","REV_AT_EPOCH":"4928","TLE_LINE1":"1 48456U 21040AE  22087.71250021  .00002893  00000-0  21298-3 0  9998","PERIOD":"95.592","LAUNCH_DATE":"2021-05-09","ELEMENT_SET_NO":"999","INCLINATION":"53.0541","OBJECT_NAME":"STARLINK-2508","PERIAPSIS":"545.995","MEAN_ANOMALY":"308.1923","SITE":"AFETR","COUNTRY_CODE":"US","BSTAR":"0.00021298000000","EPHEMERIS_TYPE":"0","SEMIMAJOR_AXIS":"6925.322","RA_OF_ASC_NODE":"174.9053","CENTER_NAME":"EARTH","GP_ID":"199943240","MEAN_ELEMENT_THEORY":"SGP4","APOAPSIS":"548.380","MEAN_MOTION_DDOT":"0.0000000000000","REF_FRAME":"TEME","TLE_LINE2":"2 48456  53.0541 174.9053 0001722  51.9221 308.1923 15.06408635 49285","EPOCH":"2022-03-28T17:06:00.018144","MEAN_MOTION":"15.06408635","MEAN_MOTION_DOT":"0.00002893","OBJECT_ID":"2021-040AE"},{"OBJECT_ID":"2021-040AG","MEAN_MOTION_DOT":"0.00001739","MEAN_MOTION":"15.06403018","EPOCH":"2022-03-28T12:25:19.265376","TLE_LINE2":"2 48458  53.0546 180.7861 0001479  69.6033 290.5115 15.06403018 49906","MEAN_MOTION_DDOT":"0.0000000000000","REF_FRAME":"TEME","MEAN_ELEMENT_THEORY":"SGP4","APOAPSIS":"548.229","CENTER_NAME":"EARTH","GP_ID":"199906266","RA_OF_ASC_NODE":"180.7861","SEMIMAJOR_AXIS":"6925.339","EPHEMERIS_TYPE":"0","SITE":"AFETR","COUNTRY_CODE":"US","BSTAR":"0.00013559000000","MEAN_ANOMALY":"290.5115","PERIAPSIS":"546.180","INCLINATION":"53.0546","OBJECT_NAME":"STARLINK-2698","ELEMENT_SET_NO":"999","LAUNCH_DATE":"2021-05-09","PERIOD":"95.592","REV_AT_EPOCH":"4990","TLE_LINE1":"1 48458U 21040AG  22087.51758409  .00001739  00000-0  13559-3 0  9990","ECCENTRICITY":"0.00014790","TIME_SYSTEM":"UTC","FILE":"3377801","DECAY_DATE":null,"ARG_OF_PERICENTER":"69.6033","OBJECT_TYPE":"PAYLOAD","NORAD_CAT_ID":"48458","RCS_SIZE":"LARGE","CLASSIFICATION_TYPE":"U"},{"NORAD_CAT_ID":"48459","RCS_SIZE":"LARGE","CLASSIFICATION_TYPE":"U","ARG_OF_PERICENTER":"62.7713","DECAY_DATE":null,"OBJECT_TYPE":"PAYLOAD","TIME_SYSTEM":"UTC","FILE":"3378342","PERIOD":"95.591","LAUNCH_DATE":"2021-05-09","ECCENTRICITY":"0.00015130","REV_AT_EPOCH":"4923","TLE_LINE1":"1 48459U 21040AH  22087.74979717  .00007160  00000-0  49893-3 0  9997","INCLINATION":"53.0550","OBJECT_NAME":"STARLINK-2579","PERIAPSIS":"546.131","ELEMENT_SET_NO":"999","EPHEMERIS_TYPE":"0","SEMIMAJOR_AXIS":"6925.313","MEAN_ANOMALY":"297.3430","SITE":"AFETR","BSTAR":"0.00049893000000","COUNTRY_CODE":"US","MEAN_ELEMENT_THEORY":"SGP4","APOAPSIS":"548.226","RA_OF_ASC_NODE":"179.7482","CENTER_NAME":"EARTH","GP_ID":"199943742","TLE_LINE2":"2 48459  53.0550 179.7482 0001513  62.7713 297.3430 15.06411467 49235","EPOCH":"2022-03-28T17:59:42.475488","MEAN_MOTION_DDOT":"0.0000000000000","REF_FRAME":"TEME","OBJECT_ID":"2021-040AH","MEAN_MOTION_DOT":"0.00007160","MEAN_MOTION":"15.06411467"},{"MEAN_ANOMALY":"309.0680","SITE":"AFETR","COUNTRY_CODE":"US","BSTAR":"0.00029156000000","EPHEMERIS_TYPE":"0","SEMIMAJOR_AXIS":"6925.318","RA_OF_ASC_NODE":"180.1037","CENTER_NAME":"EARTH","GP_ID":"199942490","MEAN_ELEMENT_THEORY":"SGP4","APOAPSIS":"548.353","MEAN_MOTION_DDOT":"0.0000000000000","REF_FRAME":"TEME","TLE_LINE2":"2 48460  53.0547 180.1037 0001689  51.0459 309.0680 15.06409811 49729","EPOCH":"2022-03-28T16:04:18.190272","MEAN_MOTION_DOT":"0.00004065","MEAN_MOTION":"15.06409811","OBJECT_ID":"2021-040AJ","NORAD_CAT_ID":"48460","RCS_SIZE":"LARGE","CLASSIFICATION_TYPE":"U","DECAY_DATE":null,"ARG_OF_PERICENTER":"51.0459","OBJECT_TYPE":"PAYLOAD","FILE":"3378342","TIME_SYSTEM":"UTC","ECCENTRICITY":"0.00016890","REV_AT_EPOCH":"4972","TLE_LINE1":"1 48460U 21040AJ  22087.66965498  .00004065  00000-0  29156-3 0  9992","PERIOD":"95.592","LAUNCH_DATE":"2021-05-09","ELEMENT_SET_NO":"999","INCLINATION":"53.0547","OBJECT_NAME":"STARLINK-2582","PERIAPSIS":"546.014"},{"DECAY_DATE":null,"ARG_OF_PERICENTER":"45.2747","OBJECT_TYPE":"PAYLOAD","RCS_SIZE":"LARGE","NORAD_CAT_ID":"48461","CLASSIFICATION_TYPE":"U","FILE":"3378110","TIME_SYSTEM":"UTC","REV_AT_EPOCH":"5047","TLE_LINE1":"1 48461U 21040AK  22087.55169462  .00002486  00000-0  18568-3 0  9998","ECCENTRICITY":"0.00016660","LAUNCH_DATE":"2021-05-09","PERIOD":"95.592","ELEMENT_SET_NO":"999","PERIAPSIS":"546.038","INCLINATION":"53.0555","OBJECT_NAME":"STARLINK-2693","SITE":"AFETR","COUNTRY_CODE":"US","BSTAR":"0.00018568000000","MEAN_ANOMALY":"314.8378","SEMIMAJOR_AXIS":"6925.326","EPHEMERIS_TYPE":"0","CENTER_NAME":"EARTH","GP_ID":"199915833","RA_OF_ASC_NODE":"180.6264","MEAN_ELEMENT_THEORY":"SGP4","APOAPSIS":"548.345","MEAN_MOTION_DDOT":"0.0000000000000","REF_FRAME":"TEME","EPOCH":"2022-03-28T13:14:26.415168","TLE_LINE2":"2 48461  53.0555 180.6264 0001666  45.2747 314.8378 15.06407234 50475","MEAN_MOTION_DOT":"0.00002486","MEAN_MOTION":"15.06407234","OBJECT_ID":"2021-040AK"},{"MEAN_MOTION":"15.06391784","MEAN_MOTION_DOT":"0.00002278","OBJECT_ID":"2021-040AL","REF_FRAME":"TEME","MEAN_MOTION_DDOT":"0.0000000000000","TLE_LINE2":"2 48462  53.0537 185.5118 0001514  57.5512 302.5623 15.06391784 49136","EPOCH":"2022-03-28T13:46:56.868384","RA_OF_ASC_NODE":"185.5118","GP_ID":"199905767","CENTER_NAME":"EARTH","APOAPSIS":"548.287","MEAN_ELEMENT_THEORY":"SGP4","MEAN_ANOMALY":"302.5623","COUNTRY_CODE":"US","BSTAR":"0.00017183000000","SITE":"AFETR","EPHEMERIS_TYPE":"0","SEMIMAJOR_AXIS":"6925.374","ELEMENT_SET_NO":"999","OBJECT_NAME":"STARLINK-2683","INCLINATION":"53.0537","PERIAPSIS":"546.190","ECCENTRICITY":"0.00015140","TLE_LINE1":"1 48462U 21040AL  22087.57426931  .00002278  00000-0  17183-3 0  9999","REV_AT_EPOCH":"4913","PERIOD":"95.593","LAUNCH_DATE":"2021-05-09","FILE":"3377801","TIME_SYSTEM":"UTC","CLASSIFICATION_TYPE":"U","NORAD_CAT_ID":"48462","RCS_SIZE":"LARGE","OBJECT_TYPE":"PAYLOAD","DECAY_DATE":null,"ARG_OF_PERICENTER":"57.5512"},{"ELEMENT_SET_NO":"999","PERIAPSIS":"546.142","OBJECT_NAME":"STARLINK-2689","INCLINATION":"53.0537","TLE_LINE1":"1 48463U 21040AM  22087.60744166  .00000426  00000-0  47501-4 0  9998","REV_AT_EPOCH":"4914","ECCENTRICITY":"0.00015290","LAUNCH_DATE":"2021-05-09","PERIOD":"95.592","FILE":"3378342","TIME_SYSTEM":"UTC","OBJECT_TYPE":"PAYLOAD","ARG_OF_PERICENTER":"67.8610","DECAY_DATE":null,"CLASSIFICATION_TYPE":"U","NORAD_CAT_ID":"48463","RCS_SIZE":"LARGE","MEAN_MOTION":"15.06404163","MEAN_MOTION_DOT":"0.00000426","OBJECT_ID":"2021-040AM","REF_FRAME":"TEME","MEAN_MOTION_DDOT":"0.0000000000000","EPOCH":"2022-03-28T14:34:42.959424","TLE_LINE2":"2 48463  53.0537 185.3868 0001529  67.8610 292.2541 15.06404163 49147","GP_ID":"199944243","CENTER_NAME":"EARTH","RA_OF_ASC_NODE":"185.3868","APOAPSIS":"548.260","MEAN_ELEMENT_THEORY":"SGP4","COUNTRY_CODE":"US","BSTAR":"0.00004750100000","SITE":"AFETR","MEAN_ANOMALY":"292.2541","SEMIMAJOR_AXIS":"6925.336","EPHEMERIS_TYPE":"0"},{"MEAN_MOTION":"15.06411394","MEAN_MOTION_DOT":"0.00003780","OBJECT_ID":"2021-040AN","MEAN_MOTION_DDOT":"0.0000000000000","REF_FRAME":"TEME","EPOCH":"2022-03-28T18:50:49.710048","TLE_LINE2":"2 48464  53.0533 184.5858 0001322  65.5042 294.6084 15.06411394 49163","CENTER_NAME":"EARTH","GP_ID":"199942991","RA_OF_ASC_NODE":"184.5858","MEAN_ELEMENT_THEORY":"SGP4","APOAPSIS":"548.094","SITE":"AFETR","BSTAR":"0.00027245000000","COUNTRY_CODE":"US","MEAN_ANOMALY":"294.6084","SEMIMAJOR_AXIS":"6925.314","EPHEMERIS_TYPE":"0","ELEMENT_SET_NO":"999","PERIAPSIS":"546.263","INCLINATION":"53.0533","OBJECT_NAME":"STARLINK-2686","REV_AT_EPOCH":"4916","TLE_LINE1":"1 48464U 21040AN  22087.78529757  .00003780  00000-0  27245-3 0  9993","ECCENTRICITY":"0.00013220","LAUNCH_DATE":"2021-05-09","PERIOD":"95.591","FILE":"3378342","TIME_SYSTEM":"UTC","DECAY_DATE":null,"ARG_OF_PERICENTER":"65.5042","OBJECT_TYPE":"PAYLOAD","RCS_SIZE":"MEDIUM","NORAD_CAT_ID":"48464","CLASSIFICATION_TYPE":"U"}];
